{
  "type": "FeatureCollection",
  "features": [
    {
      "type": "Feature",
      "id": 3,
      "geometry": {
        "type": "LineString",
        "coordinates": [
          [
            168.7172508950122,
            -45.01749469806265
          ],
          [
            168.71808908298954,
            -45.01747547994944
          ],
          [
            168.71831535352575,
            -45.01746875866738
          ],
          [
            168.7184940893234,
            -45.01746472642152
          ],
          [
            168.71876979680752,
            -45.01745531777735
          ],
          [
            168.71890289750388,
            -45.01743918816654
          ],
          [
            168.71905311159605,
            -45.01740020970446
          ],
          [
            168.7195859316737,
            -45.01724945198249
          ],
          [
            168.7208256635322,
            -45.01695242632489
          ],
          [
            168.72189578768,
            -45.016716370667766
          ],
          [
            168.72208573278883,
            -45.01668615190707
          ],
          [
            168.72232145631068,
            -45.01666278898977
          ],
          [
            168.72247244840392,
            -45.016657373609064
          ],
          [
            168.72260160000621,
            -45.016666874742405
          ],
          [
            168.72274922717813,
            -45.01669347224542
          ],
          [
            168.7229415522614,
            -45.01675100013929
          ],
          [
            168.72308035720823,
            -45.0167967004204
          ],
          [
            168.72319919621032,
            -45.01684004821377
          ],
          [
            168.72336034376087,
            -45.01691061519111
          ],
          [
            168.7236968987632,
            -45.01705779616665
          ]
        ]
      },
      "properties": {
        "OBJECTID": 3,
        "TRAILNME": "Frankton Track & Kelvin Peninsula Trail",
        "CYCLEGRADE": null,
        "SURFACE": "09",
        "CYCLE": "01",
        "ASSTAT": "02",
        "OPSTAT": "02"
      }
    },
    {
      "type": "Feature",
      "id": 135,
      "geometry": {
        "type": "LineString",
        "coordinates": [
          [
            168.71517839225592,
            -45.018719606810635
          ],
          [
            168.71505232021082,
            -45.01875297565716
          ],
          [
            168.71488533533022,
            -45.018830536102584
          ],
          [
            168.71480999768067,
            -45.018843394379154
          ],
          [
            168.71467452046207,
            -45.01880643202303
          ],
          [
            168.7140922052288,
            -45.018920679041116
          ],
          [
            168.71396861156055,
            -45.018932438968804
          ],
          [
            168.7138681036327,
            -45.01892567127953
          ],
          [
            168.71357881672935,
            -45.01891899850726
          ],
          [
            168.71354758242924,
            -45.01892034454694
          ]
        ]
      },
      "properties": {
        "OBJECTID": 135,
        "TRAILNME": "Frankton Track & Kelvin Peninsula Trail",
        "CYCLEGRADE": null,
        "SURFACE": "09",
        "CYCLE": "01",
        "ASSTAT": "02",
        "OPSTAT": "02"
      }
    },
    {
      "type": "Feature",
      "id": 136,
      "geometry": {
        "type": "LineString",
        "coordinates": [
          [
            168.70897552322043,
            -45.02048303621518
          ],
          [
            168.70864042571944,
            -45.02057247262217
          ],
          [
            168.70846812782113,
            -45.020613144442066
          ],
          [
            168.7080784552174,
            -45.02067754809231
          ],
          [
            168.70749186132622,
            -45.02075263630895
          ],
          [
            168.7072111792854,
            -45.02076969520395
          ],
          [
            168.70701485583245,
            -45.020759316729425
          ],
          [
            168.70687605040922,
            -45.02075125178142
          ],
          [
            168.70671632970155,
            -45.02075931621556
          ],
          [
            168.7066204038961,
            -45.02077209399291
          ],
          [
            168.7064101981347,
            -45.02082382957398
          ],
          [
            168.70624549973004,
            -45.02088432829926
          ],
          [
            168.70605653115604,
            -45.02096898466828
          ],
          [
            168.70593293753603,
            -45.0210536584907
          ],
          [
            168.70573833420016,
            -45.021252974487545
          ],
          [
            168.70562490400374,
            -45.021365471353995
          ],
          [
            168.70550891627474,
            -45.02148240151362
          ],
          [
            168.70538151980452,
            -45.02159126631679
          ],
          [
            168.70512482590846,
            -45.021768675450474
          ],
          [
            168.70494989428954,
            -45.021888292030425
          ],
          [
            168.70456254598173,
            -45.02211898236577
          ],
          [
            168.70448793715747,
            -45.02219143496395
          ],
          [
            168.70432241899428,
            -45.02226730046325
          ],
          [
            168.7040657249016,
            -45.022361380153825
          ],
          [
            168.70355614011834,
            -45.022528036065694
          ],
          [
            168.70335648843545,
            -45.02262480332585
          ],
          [
            168.70314946404937,
            -45.02275405475744
          ],
          [
            168.70298190530593,
            -45.02281027304128
          ],
          [
            168.70272140817266,
            -45.02288016044329
          ],
          [
            168.7023905580225,
            -45.02294735887768
          ],
          [
            168.7022346404598,
            -45.02295676754621
          ],
          [
            168.7022156170712,
            -45.02296141275099
          ]
        ]
      },
      "properties": {
        "OBJECTID": 136,
        "TRAILNME": "Frankton Track & Kelvin Peninsula Trail",
        "CYCLEGRADE": "02",
        "SURFACE": "09",
        "CYCLE": "01",
        "ASSTAT": "02",
        "OPSTAT": "02"
      }
    },
    {
      "type": "Feature",
      "id": 245,
      "geometry": {
        "type": "LineString",
        "coordinates": [
          [
            168.7132805286082,
            -45.01893663912884
          ],
          [
            168.71318042196575,
            -45.01896078586792
          ],
          [
            168.71300003846187,
            -45.01903783966997
          ],
          [
            168.712629387478,
            -45.019216346115925
          ]
        ]
      },
      "properties": {
        "OBJECTID": 245,
        "TRAILNME": "Frankton Track & Kelvin Peninsula Trail",
        "CYCLEGRADE": null,
        "SURFACE": "09",
        "CYCLE": "01",
        "ASSTAT": "02",
        "OPSTAT": "02"
      }
    },
    {
      "type": "Feature",
      "id": 246,
      "geometry": {
        "type": "LineString",
        "coordinates": [
          [
            168.71354758242924,
            -45.01892034454694
          ],
          [
            168.71338391993163,
            -45.018927398751565
          ],
          [
            168.7132805286082,
            -45.01893663912884
          ]
        ]
      },
      "properties": {
        "OBJECTID": 246,
        "TRAILNME": "Frankton Track & Kelvin Peninsula Trail",
        "CYCLEGRADE": null,
        "SURFACE": "09",
        "CYCLE": "01",
        "ASSTAT": "02",
        "OPSTAT": "02"
      }
    },
    {
      "type": "Feature",
      "id": 247,
      "geometry": {
        "type": "LineString",
        "coordinates": [
          [
            168.68846843287997,
            -45.02895365756296
          ],
          [
            168.68834286520217,
            -45.02901587230766
          ],
          [
            168.68819265261058,
            -45.029108596534755
          ],
          [
            168.68795116983347,
            -45.02928329515042
          ],
          [
            168.68786687511925,
            -45.02942426733934
          ],
          [
            168.68776618255075,
            -45.02953049563378
          ],
          [
            168.6874931487341,
            -45.02978454149828
          ],
          [
            168.68726950475204,
            -45.02991086128177
          ],
          [
            168.68637582921698,
            -45.03055185930993
          ],
          [
            168.6862643685371,
            -45.03066121652301
          ],
          [
            168.68609821909283,
            -45.030765523441445
          ],
          [
            168.6860544861287,
            -45.03079911801962
          ],
          [
            168.685999344509,
            -45.03089049610115
          ],
          [
            168.68584697718987,
            -45.03098553557357
          ],
          [
            168.68548403256418,
            -45.03125471222996
          ],
          [
            168.68537757415896,
            -45.03130303958674
          ],
          [
            168.68524257177083,
            -45.03137426025764
          ],
          [
            168.68500869521247,
            -45.03155432747272
          ],
          [
            168.68475960678342,
            -45.03179351893411
          ],
          [
            168.68466833787477,
            -45.03186473904901
          ],
          [
            168.68435079753303,
            -45.0320676485924
          ],
          [
            168.6840541744376,
            -45.03233237039611
          ],
          [
            168.68361494152532,
            -45.03266696527077
          ],
          [
            168.68326697896092,
            -45.03297065278435
          ],
          [
            168.68290950823584,
            -45.033345556818766
          ],
          [
            168.6825824618335,
            -45.033682833681674
          ],
          [
            168.68207858082124,
            -45.03418404312612
          ],
          [
            168.68165740046376,
            -45.03437952555209
          ],
          [
            168.68144530221016,
            -45.03445667886746
          ],
          [
            168.68128758278854,
            -45.034529377368166
          ],
          [
            168.6810099727614,
            -45.034614030921055
          ],
          [
            168.68068672882163,
            -45.03463418621011
          ],
          [
            168.68047957158473,
            -45.03465786463764
          ],
          [
            168.6800378536095,
            -45.03474258842261
          ],
          [
            168.67984058826366,
            -45.03477527518491
          ]
        ]
      },
      "properties": {
        "OBJECTID": 247,
        "TRAILNME": "Frankton Track & Kelvin Peninsula Trail",
        "CYCLEGRADE": "02",
        "SURFACE": "09",
        "CYCLE": "01",
        "ASSTAT": "02",
        "OPSTAT": "02"
      }
    },
    {
      "type": "Feature",
      "id": 248,
      "geometry": {
        "type": "LineString",
        "coordinates": [
          [
            168.67617706553887,
            -45.03535835197562
          ],
          [
            168.67617651804912,
            -45.03535844013127
          ],
          [
            168.67610200553105,
            -45.035405049426295
          ],
          [
            168.6759080580056,
            -45.035521950928185
          ],
          [
            168.67561904064172,
            -45.03564556977256
          ],
          [
            168.67521403433682,
            -45.03575978222856
          ],
          [
            168.67491413737167,
            -45.03581729516185
          ],
          [
            168.6747158577065,
            -45.03583905934288
          ],
          [
            168.6744857835105,
            -45.03589683772518
          ],
          [
            168.67432606257265,
            -45.03595058532616
          ],
          [
            168.6741971505359,
            -45.03599730115408
          ]
        ]
      },
      "properties": {
        "OBJECTID": 248,
        "TRAILNME": "Frankton Track & Kelvin Peninsula Trail",
        "CYCLEGRADE": "02",
        "SURFACE": "09",
        "CYCLE": "01",
        "ASSTAT": "02",
        "OPSTAT": "02"
      }
    },
    {
      "type": "Feature",
      "id": 486,
      "geometry": {
        "type": "LineString",
        "coordinates": [
          [
            168.712629387478,
            -45.019216346115925
          ],
          [
            168.7123392374608,
            -45.01937692016064
          ],
          [
            168.7121727587514,
            -45.01948355290847
          ],
          [
            168.711954791041,
            -45.019674672273766
          ],
          [
            168.7117304213653,
            -45.01978488429882
          ],
          [
            168.711519361166,
            -45.01988165623992
          ],
          [
            168.711387547609,
            -45.019915599884264
          ],
          [
            168.71120351758074,
            -45.01995154776269
          ],
          [
            168.71112386206636,
            -45.01997036423676
          ],
          [
            168.71102134277285,
            -45.020007571882815
          ],
          [
            168.710761278182,
            -45.02009924982063
          ],
          [
            168.71028805682874,
            -45.02023911474814
          ],
          [
            168.70970158735997,
            -45.020377609586006
          ],
          [
            168.70946801319755,
            -45.02040927295056
          ],
          [
            168.70903928924707,
            -45.02046601763604
          ],
          [
            168.70897552322043,
            -45.02048303621518
          ]
        ]
      },
      "properties": {
        "OBJECTID": 486,
        "TRAILNME": "Frankton Track & Kelvin Peninsula Trail",
        "CYCLEGRADE": "02",
        "SURFACE": "09",
        "CYCLE": "01",
        "ASSTAT": "02",
        "OPSTAT": "02"
      }
    },
    {
      "type": "Feature",
      "id": 63942,
      "geometry": {
        "type": "LineString",
        "coordinates": [
          [
            168.7022156170712,
            -45.02296141275099
          ],
          [
            168.7021300616274,
            -45.02298230315769
          ],
          [
            168.70206541285017,
            -45.02301724607179
          ],
          [
            168.7017546747129,
            -45.02325937340192
          ],
          [
            168.7014740650315,
            -45.02334652047425
          ],
          [
            168.70111469366265,
            -45.02341909494127
          ],
          [
            168.70096828273688,
            -45.02345672578257
          ],
          [
            168.70063553133147,
            -45.02358305832392
          ],
          [
            168.7003484145193,
            -45.02367176026804
          ],
          [
            168.70012784750662,
            -45.023765838035814
          ],
          [
            168.69994340853535,
            -45.02383034768225
          ],
          [
            168.69969431942417,
            -45.02389351366494
          ],
          [
            168.6994033997462,
            -45.02398087160227
          ],
          [
            168.69912388815425,
            -45.02411795454557
          ],
          [
            168.6988215599738,
            -45.02428057305789
          ],
          [
            168.69866183944336,
            -45.02434777047802
          ],
          [
            168.69846028596064,
            -45.02444990980967
          ],
          [
            168.69820552331876,
            -45.02460625678046
          ]
        ]
      },
      "properties": {
        "OBJECTID": 63942,
        "TRAILNME": "Frankton Track & Kelvin Peninsula Trail",
        "CYCLEGRADE": "02",
        "SURFACE": "09",
        "CYCLE": "01",
        "ASSTAT": "02",
        "OPSTAT": "02"
      }
    },
    {
      "type": "Feature",
      "id": 64045,
      "geometry": {
        "type": "LineString",
        "coordinates": [
          [
            168.67984058826366,
            -45.03477527518491
          ],
          [
            168.67956297896978,
            -45.034752432674644
          ],
          [
            168.679294875314,
            -45.03471749656694
          ],
          [
            168.67917318417426,
            -45.0347107783306
          ],
          [
            168.67897163120367,
            -45.03472287125364
          ],
          [
            168.67870386264855,
            -45.03476633587332
          ],
          [
            168.67849627222424,
            -45.03479946245618
          ],
          [
            168.678123589938,
            -45.03484380475458
          ],
          [
            168.67780034510537,
            -45.03490292730724
          ],
          [
            168.6774885099893,
            -45.03496742544173
          ],
          [
            168.67718960126987,
            -45.035056643333135
          ],
          [
            168.67696241555987,
            -45.03517203679193
          ],
          [
            168.67644271867152,
            -45.03531544231096
          ],
          [
            168.67617706553887,
            -45.03535835197562
          ]
        ]
      },
      "properties": {
        "OBJECTID": 64045,
        "TRAILNME": "Frankton Track & Kelvin Peninsula Trail",
        "CYCLEGRADE": "02",
        "SURFACE": "09",
        "CYCLE": "01",
        "ASSTAT": "02",
        "OPSTAT": "02"
      }
    },
    {
      "type": "Feature",
      "id": 64341,
      "geometry": {
        "type": "LineString",
        "coordinates": [
          [
            168.69820552331876,
            -45.02460625678046
          ],
          [
            168.69814274656974,
            -45.02464478244728
          ],
          [
            168.6979906313436,
            -45.024763048372165
          ],
          [
            168.69789746105175,
            -45.02488131525604
          ],
          [
            168.69781189587198,
            -45.02501839680749
          ],
          [
            168.69769590833644,
            -45.025195795551156
          ],
          [
            168.69764076694113,
            -45.025262991215584
          ],
          [
            168.6975723156204,
            -45.025331531681246
          ],
          [
            168.69749245485903,
            -45.02539200875222
          ],
          [
            168.6973783688763,
            -45.02546592464845
          ],
          [
            168.69708174371877,
            -45.0256016598482
          ],
          [
            168.6968478669103,
            -45.02570245374434
          ],
          [
            168.69614232431618,
            -45.02597717411613
          ],
          [
            168.69597700855763,
            -45.02605455909729
          ],
          [
            168.6958096822523,
            -45.02615535208459
          ],
          [
            168.69568543840816,
            -45.02621143703811
          ],
          [
            168.6954215733067,
            -45.02631722682393
          ],
          [
            168.69522213815196,
            -45.0263999422675
          ],
          [
            168.69499717840426,
            -45.02652127386188
          ],
          [
            168.6948589631464,
            -45.026584056089405
          ],
          [
            168.69469734099843,
            -45.02662571692441
          ],
          [
            168.69454902880364,
            -45.02666065802216
          ],
          [
            168.69440451957334,
            -45.02669022350318
          ],
          [
            168.69419275627155,
            -45.02674097563001
          ],
          [
            168.69402192932301,
            -45.026761675252324
          ],
          [
            168.69379225691472,
            -45.02681923790108
          ],
          [
            168.69358309848707,
            -45.02686896115644
          ],
          [
            168.69338154560663,
            -45.026944219001884
          ],
          [
            168.69320169680628,
            -45.02703078913107
          ],
          [
            168.69300809760273,
            -45.0270863535939
          ],
          [
            168.69276163417803,
            -45.02712134119456
          ],
          [
            168.69252012865445,
            -45.027170807028874
          ],
          [
            168.69236706324358,
            -45.027196462038084
          ],
          [
            168.69183567669728,
            -45.027372917686826
          ],
          [
            168.69123482274645,
            -45.02754224590012
          ],
          [
            168.69087014573958,
            -45.027674351006155
          ],
          [
            168.6907775267763,
            -45.0277008224726
          ],
          [
            168.69033449226274,
            -45.02799647272923
          ],
          [
            168.6900378672876,
            -45.02819133290724
          ],
          [
            168.68991153433495,
            -45.02828261279906
          ],
          [
            168.68976943385465,
            -45.02836575095273
          ],
          [
            168.6894978589769,
            -45.02851385763793
          ],
          [
            168.68924982663077,
            -45.02864057787257
          ],
          [
            168.68908714913633,
            -45.02871274776111
          ],
          [
            168.68874375358834,
            -45.02883150976688
          ],
          [
            168.6885468481655,
            -45.02890408929383
          ],
          [
            168.6884483378251,
            -45.02895289749322
          ]
        ]
      },
      "properties": {
        "OBJECTID": 64341,
        "TRAILNME": "Frankton Track & Kelvin Peninsula Trail",
        "CYCLEGRADE": "02",
        "SURFACE": "09",
        "CYCLE": "01",
        "ASSTAT": "02",
        "OPSTAT": "02"
      }
    }
  ]
}